<?xml version="1.0" encoding="UTF-8"?>
<osm generator="VMB">
  <MetaInfo format_version="1" map_version="101" validation_version="1"/>
  <node id="1" lat="" lon="">
    <tag k="local_x" v="65.8049"/>
    <tag k="local_y" v="4.0589"/>
    <tag k="ele" v="0"/>
  </node>
  <node id="5" lat="" lon="">
    <tag k="local_x" v="65.8739"/>
    <tag k="local_y" v="1.2135"/>
    <tag k="ele" v="0"/>
  </node>
  <node id="6" lat="" lon="">
    <tag k="local_x" v="-52.224"/>
    <tag k="local_y" v="1.1097"/>
    <tag k="ele" v="0"/>
  </node>
  <node id="8" lat="" lon="">
    <tag k="local_x" v="-51.9732"/>
    <tag k="local_y" v="4.0589"/>
    <tag k="ele" v="0"/>
  </node>
  <node id="10" lat="" lon="">
    <tag k="local_x" v="-47.436"/>
    <tag k="local_y" v="4.0589"/>
    <tag k="ele" v="0"/>
  </node>
  <node id="11" lat="" lon="">
    <tag k="local_x" v="-42.41"/>
    <tag k="local_y" v="4.0589"/>
    <tag k="ele" v="0"/>
  </node>
  <node id="12" lat="" lon="">
    <tag k="local_x" v="-37.4469"/>
    <tag k="local_y" v="4.0589"/>
    <tag k="ele" v="0"/>
  </node>
  <node id="13" lat="" lon="">
    <tag k="local_x" v="-32.4209"/>
    <tag k="local_y" v="4.0589"/>
    <tag k="ele" v="0"/>
  </node>
  <node id="14" lat="" lon="">
    <tag k="local_x" v="-27.395"/>
    <tag k="local_y" v="4.0589"/>
    <tag k="ele" v="0"/>
  </node>
  <node id="15" lat="" lon="">
    <tag k="local_x" v="-22.4319"/>
    <tag k="local_y" v="4.0589"/>
    <tag k="ele" v="0"/>
  </node>
  <node id="16" lat="" lon="">
    <tag k="local_x" v="-17.4059"/>
    <tag k="local_y" v="4.0589"/>
    <tag k="ele" v="0"/>
  </node>
  <node id="17" lat="" lon="">
    <tag k="local_x" v="-12.38"/>
    <tag k="local_y" v="4.0589"/>
    <tag k="ele" v="0"/>
  </node>
  <node id="18" lat="" lon="">
    <tag k="local_x" v="-7.354"/>
    <tag k="local_y" v="4.0589"/>
    <tag k="ele" v="0"/>
  </node>
  <node id="19" lat="" lon="">
    <tag k="local_x" v="-2.3909"/>
    <tag k="local_y" v="4.0589"/>
    <tag k="ele" v="0"/>
  </node>
  <node id="20" lat="" lon="">
    <tag k="local_x" v="2.635"/>
    <tag k="local_y" v="4.0589"/>
    <tag k="ele" v="0"/>
  </node>
  <node id="21" lat="" lon="">
    <tag k="local_x" v="7.661"/>
    <tag k="local_y" v="4.0589"/>
    <tag k="ele" v="0"/>
  </node>
  <node id="22" lat="" lon="">
    <tag k="local_x" v="12.6241"/>
    <tag k="local_y" v="4.0589"/>
    <tag k="ele" v="0"/>
  </node>
  <node id="23" lat="" lon="">
    <tag k="local_x" v="17.5872"/>
    <tag k="local_y" v="4.0589"/>
    <tag k="ele" v="0"/>
  </node>
  <node id="24" lat="" lon="">
    <tag k="local_x" v="22.6132"/>
    <tag k="local_y" v="4.0589"/>
    <tag k="ele" v="0"/>
  </node>
  <node id="25" lat="" lon="">
    <tag k="local_x" v="27.6391"/>
    <tag k="local_y" v="4.0589"/>
    <tag k="ele" v="0"/>
  </node>
  <node id="26" lat="" lon="">
    <tag k="local_x" v="32.6022"/>
    <tag k="local_y" v="4.0589"/>
    <tag k="ele" v="0"/>
  </node>
  <node id="27" lat="" lon="">
    <tag k="local_x" v="37.6282"/>
    <tag k="local_y" v="4.0589"/>
    <tag k="ele" v="0"/>
  </node>
  <node id="28" lat="" lon="">
    <tag k="local_x" v="42.5913"/>
    <tag k="local_y" v="4.0589"/>
    <tag k="ele" v="0"/>
  </node>
  <node id="29" lat="" lon="">
    <tag k="local_x" v="47.6172"/>
    <tag k="local_y" v="4.0589"/>
    <tag k="ele" v="0"/>
  </node>
  <node id="30" lat="" lon="">
    <tag k="local_x" v="52.6432"/>
    <tag k="local_y" v="4.0589"/>
    <tag k="ele" v="0"/>
  </node>
  <node id="31" lat="" lon="">
    <tag k="local_x" v="57.6691"/>
    <tag k="local_y" v="4.0589"/>
    <tag k="ele" v="0"/>
  </node>
  <node id="32" lat="" lon="">
    <tag k="local_x" v="62.6322"/>
    <tag k="local_y" v="4.0589"/>
    <tag k="ele" v="0"/>
  </node>
  <node id="48" lat="" lon="">
    <tag k="local_x" v="-47.5954"/>
    <tag k="local_y" v="1.1139"/>
    <tag k="ele" v="0"/>
  </node>
  <node id="49" lat="" lon="">
    <tag k="local_x" v="-42.5708"/>
    <tag k="local_y" v="1.1183"/>
    <tag k="ele" v="0"/>
  </node>
  <node id="50" lat="" lon="">
    <tag k="local_x" v="-37.5819"/>
    <tag k="local_y" v="1.1227"/>
    <tag k="ele" v="0"/>
  </node>
  <node id="51" lat="" lon="">
    <tag k="local_x" v="-32.5216"/>
    <tag k="local_y" v="1.1271"/>
    <tag k="ele" v="0"/>
  </node>
  <node id="52" lat="" lon="">
    <tag k="local_x" v="-27.4971"/>
    <tag k="local_y" v="1.1315"/>
    <tag k="ele" v="0"/>
  </node>
  <node id="53" lat="" lon="">
    <tag k="local_x" v="-22.5438"/>
    <tag k="local_y" v="1.1359"/>
    <tag k="ele" v="0"/>
  </node>
  <node id="54" lat="" lon="">
    <tag k="local_x" v="-17.5192"/>
    <tag k="local_y" v="1.1403"/>
    <tag k="ele" v="0"/>
  </node>
  <node id="55" lat="" lon="">
    <tag k="local_x" v="-12.5659"/>
    <tag k="local_y" v="1.1446"/>
    <tag k="ele" v="0"/>
  </node>
  <node id="56" lat="" lon="">
    <tag k="local_x" v="-7.5413"/>
    <tag k="local_y" v="1.149"/>
    <tag k="ele" v="0"/>
  </node>
  <node id="57" lat="" lon="">
    <tag k="local_x" v="-2.588"/>
    <tag k="local_y" v="1.1534"/>
    <tag k="ele" v="0"/>
  </node>
  <node id="58" lat="" lon="">
    <tag k="local_x" v="2.4366"/>
    <tag k="local_y" v="1.1578"/>
    <tag k="ele" v="0"/>
  </node>
  <node id="59" lat="" lon="">
    <tag k="local_x" v="7.4611"/>
    <tag k="local_y" v="1.1622"/>
    <tag k="ele" v="0"/>
  </node>
  <node id="60" lat="" lon="">
    <tag k="local_x" v="12.4857"/>
    <tag k="local_y" v="1.1666"/>
    <tag k="ele" v="0"/>
  </node>
  <node id="61" lat="" lon="">
    <tag k="local_x" v="17.4747"/>
    <tag k="local_y" v="1.171"/>
    <tag k="ele" v="0"/>
  </node>
  <node id="62" lat="" lon="">
    <tag k="local_x" v="22.4993"/>
    <tag k="local_y" v="1.1754"/>
    <tag k="ele" v="0"/>
  </node>
  <node id="63" lat="" lon="">
    <tag k="local_x" v="27.4882"/>
    <tag k="local_y" v="1.1798"/>
    <tag k="ele" v="0"/>
  </node>
  <node id="64" lat="" lon="">
    <tag k="local_x" v="32.5128"/>
    <tag k="local_y" v="1.1842"/>
    <tag k="ele" v="0"/>
  </node>
  <node id="65" lat="" lon="">
    <tag k="local_x" v="37.5374"/>
    <tag k="local_y" v="1.1886"/>
    <tag k="ele" v="0"/>
  </node>
  <node id="66" lat="" lon="">
    <tag k="local_x" v="42.5263"/>
    <tag k="local_y" v="1.193"/>
    <tag k="ele" v="0"/>
  </node>
  <node id="67" lat="" lon="">
    <tag k="local_x" v="47.5509"/>
    <tag k="local_y" v="1.1974"/>
    <tag k="ele" v="0"/>
  </node>
  <node id="68" lat="" lon="">
    <tag k="local_x" v="52.5398"/>
    <tag k="local_y" v="1.2018"/>
    <tag k="ele" v="0"/>
  </node>
  <node id="69" lat="" lon="">
    <tag k="local_x" v="57.5288"/>
    <tag k="local_y" v="1.2062"/>
    <tag k="ele" v="0"/>
  </node>
  <node id="72" lat="" lon="">
    <tag k="local_x" v="-52.6775"/>
    <tag k="local_y" v="4.2399"/>
    <tag k="ele" v="0"/>
  </node>
  <node id="73" lat="" lon="">
    <tag k="local_x" v="-53.4935"/>
    <tag k="local_y" v="4.5729"/>
    <tag k="ele" v="0"/>
  </node>
  <node id="75" lat="" lon="">
    <tag k="local_x" v="-54.7648"/>
    <tag k="local_y" v="5.5566"/>
    <tag k="ele" v="0"/>
  </node>
  <node id="76" lat="" lon="">
    <tag k="local_x" v="-55.5557"/>
    <tag k="local_y" v="6.412"/>
    <tag k="ele" v="0"/>
  </node>
  <node id="77" lat="" lon="">
    <tag k="local_x" v="-56.5596"/>
    <tag k="local_y" v="7.7807"/>
    <tag k="ele" v="0"/>
  </node>
  <node id="78" lat="" lon="">
    <tag k="local_x" v="-57.5434"/>
    <tag k="local_y" v="8.8927"/>
    <tag k="ele" v="0"/>
  </node>
  <node id="79" lat="" lon="">
    <tag k="local_x" v="-58.912"/>
    <tag k="local_y" v="9.8764"/>
    <tag k="ele" v="0"/>
  </node>
  <node id="80" lat="" lon="">
    <tag k="local_x" v="-59.9385"/>
    <tag k="local_y" v="10.1331"/>
    <tag k="ele" v="0"/>
  </node>
  <node id="81" lat="" lon="">
    <tag k="local_x" v="-61.0078"/>
    <tag k="local_y" v="10.1758"/>
    <tag k="ele" v="0"/>
  </node>
  <node id="108" lat="" lon="">
    <tag k="local_x" v="-104.3643"/>
    <tag k="local_y" v="-8.9865"/>
    <tag k="ele" v="0"/>
  </node>
  <node id="109" lat="" lon="">
    <tag k="local_x" v="-103.9261"/>
    <tag k="local_y" v="-9.3699"/>
    <tag k="ele" v="0"/>
  </node>
  <node id="110" lat="" lon="">
    <tag k="local_x" v="-103.6613"/>
    <tag k="local_y" v="-9.8389"/>
    <tag k="ele" v="0"/>
  </node>
  <node id="111" lat="" lon="">
    <tag k="local_x" v="-103.4159"/>
    <tag k="local_y" v="-10.4272"/>
    <tag k="ele" v="0"/>
  </node>
  <node id="112" lat="" lon="">
    <tag k="local_x" v="-103.301"/>
    <tag k="local_y" v="-11.0971"/>
    <tag k="ele" v="0"/>
  </node>
  <node id="114" lat="" lon="">
    <tag k="local_x" v="-103.3104"/>
    <tag k="local_y" v="-19.5686"/>
    <tag k="ele" v="0"/>
  </node>
  <node id="116" lat="" lon="">
    <tag k="local_x" v="-100.3003"/>
    <tag k="local_y" v="0.2866"/>
    <tag k="ele" v="0"/>
  </node>
  <node id="117" lat="" lon="">
    <tag k="local_x" v="-100.4063"/>
    <tag k="local_y" v="4.7116"/>
    <tag k="ele" v="0"/>
  </node>
  <node id="120" lat="" lon="">
    <tag k="local_x" v="-100.662"/>
    <tag k="local_y" v="6.3494"/>
    <tag k="ele" v="0"/>
  </node>
  <node id="121" lat="" lon="">
    <tag k="local_x" v="-101.2592"/>
    <tag k="local_y" v="7.5194"/>
    <tag k="ele" v="0"/>
  </node>
  <node id="122" lat="" lon="">
    <tag k="local_x" v="-102.159"/>
    <tag k="local_y" v="8.4708"/>
    <tag k="ele" v="0"/>
  </node>
  <node id="125" lat="" lon="">
    <tag k="local_x" v="-134.701"/>
    <tag k="local_y" v="10.1021"/>
    <tag k="ele" v="0"/>
  </node>
  <node id="126" lat="" lon="">
    <tag k="local_x" v="-136.4307"/>
    <tag k="local_y" v="9.9605"/>
    <tag k="ele" v="0"/>
  </node>
  <node id="127" lat="" lon="">
    <tag k="local_x" v="-137.4882"/>
    <tag k="local_y" v="9.4317"/>
    <tag k="ele" v="0"/>
  </node>
  <node id="128" lat="" lon="">
    <tag k="local_x" v="-138.6213"/>
    <tag k="local_y" v="8.6008"/>
    <tag k="ele" v="0"/>
  </node>
  <node id="129" lat="" lon="">
    <tag k="local_x" v="-139.2407"/>
    <tag k="local_y" v="7.5084"/>
    <tag k="ele" v="0"/>
  </node>
  <node id="130" lat="" lon="">
    <tag k="local_x" v="-139.8732"/>
    <tag k="local_y" v="6.5597"/>
    <tag k="ele" v="0"/>
  </node>
  <node id="131" lat="" lon="">
    <tag k="local_x" v="-140.084"/>
    <tag k="local_y" v="-1.0304"/>
    <tag k="ele" v="0"/>
  </node>
  <node id="132" lat="" lon="">
    <tag k="local_x" v="-139.892"/>
    <tag k="local_y" v="-1.7564"/>
    <tag k="ele" v="0"/>
  </node>
  <node id="133" lat="" lon="">
    <tag k="local_x" v="-139.4965"/>
    <tag k="local_y" v="-2.9428"/>
    <tag k="ele" v="0"/>
  </node>
  <node id="134" lat="" lon="">
    <tag k="local_x" v="-138.6265"/>
    <tag k="local_y" v="-4.1292"/>
    <tag k="ele" v="0"/>
  </node>
  <node id="135" lat="" lon="">
    <tag k="local_x" v="-137.361"/>
    <tag k="local_y" v="-4.7619"/>
    <tag k="ele" v="0"/>
  </node>
  <node id="137" lat="" lon="">
    <tag k="local_x" v="-136.7682"/>
    <tag k="local_y" v="-5.0282"/>
    <tag k="ele" v="0"/>
  </node>
  <node id="138" lat="" lon="">
    <tag k="local_x" v="-135.5104"/>
    <tag k="local_y" v="-5.4475"/>
    <tag k="ele" v="0"/>
  </node>
  <node id="139" lat="" lon="">
    <tag k="local_x" v="-134.3365"/>
    <tag k="local_y" v="-5.699"/>
    <tag k="ele" v="0"/>
  </node>
  <node id="151" lat="" lon="">
    <tag k="local_x" v="-135.5337"/>
    <tag k="local_y" v="-2.7572"/>
    <tag k="ele" v="0"/>
  </node>
  <node id="152" lat="" lon="">
    <tag k="local_x" v="-136.5145"/>
    <tag k="local_y" v="-2.1688"/>
    <tag k="ele" v="0"/>
  </node>
  <node id="153" lat="" lon="">
    <tag k="local_x" v="-137.299"/>
    <tag k="local_y" v="-0.8939"/>
    <tag k="ele" v="0"/>
  </node>
  <node id="154" lat="" lon="">
    <tag k="local_x" v="-137.2588"/>
    <tag k="local_y" v="5.4528"/>
    <tag k="ele" v="0"/>
  </node>
  <node id="155" lat="" lon="">
    <tag k="local_x" v="-136.7318"/>
    <tag k="local_y" v="6.3897"/>
    <tag k="ele" v="0"/>
  </node>
  <node id="156" lat="" lon="">
    <tag k="local_x" v="-136.0291"/>
    <tag k="local_y" v="6.9166"/>
    <tag k="ele" v="0"/>
  </node>
  <node id="157" lat="" lon="">
    <tag k="local_x" v="-135.3265"/>
    <tag k="local_y" v="7.1508"/>
    <tag k="ele" v="0"/>
  </node>
  <node id="158" lat="" lon="">
    <tag k="local_x" v="-105.7568"/>
    <tag k="local_y" v="7.0923"/>
    <tag k="ele" v="0"/>
  </node>
  <node id="159" lat="" lon="">
    <tag k="local_x" v="-104.8785"/>
    <tag k="local_y" v="6.7995"/>
    <tag k="ele" v="0"/>
  </node>
  <node id="160" lat="" lon="">
    <tag k="local_x" v="-104.2866"/>
    <tag k="local_y" v="6.4602"/>
    <tag k="ele" v="0"/>
  </node>
  <node id="161" lat="" lon="">
    <tag k="local_x" v="-103.775"/>
    <tag k="local_y" v="6.1214"/>
    <tag k="ele" v="0"/>
  </node>
  <node id="162" lat="" lon="">
    <tag k="local_x" v="-103.4071"/>
    <tag k="local_y" v="5.8587"/>
    <tag k="ele" v="0"/>
  </node>
  <node id="234" lat="" lon="">
    <tag k="local_x" v="-100.3013"/>
    <tag k="local_y" v="0.3279"/>
    <tag k="ele" v="0"/>
  </node>
  <node id="235" lat="" lon="">
    <tag k="local_x" v="-100.3058"/>
    <tag k="local_y" v="0.516"/>
    <tag k="ele" v="0"/>
  </node>
  <node id="236" lat="" lon="">
    <tag k="local_x" v="-100.3029"/>
    <tag k="local_y" v="0.3953"/>
    <tag k="ele" v="0"/>
  </node>
  <node id="237" lat="" lon="">
    <tag k="local_x" v="-100.3037"/>
    <tag k="local_y" v="0.4271"/>
    <tag k="ele" v="0"/>
  </node>
  <node id="238" lat="" lon="">
    <tag k="local_x" v="-103.4006"/>
    <tag k="local_y" v="5.8583"/>
    <tag k="ele" v="0"/>
  </node>
  <node id="253" lat="" lon="">
    <tag k="local_x" v="-59.6208"/>
    <tag k="local_y" v="-2.733"/>
    <tag k="ele" v="0"/>
  </node>
  <node id="254" lat="" lon="">
    <tag k="local_x" v="-54.0675"/>
    <tag k="local_y" v="-5.3912"/>
    <tag k="ele" v="0"/>
  </node>
  <node id="255" lat="" lon="">
    <tag k="local_x" v="65.866"/>
    <tag k="local_y" v="-5.7"/>
    <tag k="ele" v="0"/>
  </node>
  <node id="287" lat="" lon="">
    <tag k="local_x" v="-105.5553"/>
    <tag k="local_y" v="-2.6888"/>
    <tag k="ele" v="0"/>
  </node>
  <node id="289" lat="" lon="">
    <tag k="local_x" v="-103.3002"/>
    <tag k="local_y" v="0.2744"/>
    <tag k="ele" v="0"/>
  </node>
  <node id="291" lat="" lon="">
    <tag k="local_x" v="-100.6024"/>
    <tag k="local_y" v="5.9678"/>
    <tag k="ele" v="0"/>
  </node>
  <node id="308" lat="" lon="">
    <tag k="local_x" v="-69.4462"/>
    <tag k="local_y" v="2.6558"/>
    <tag k="ele" v="0"/>
  </node>
  <node id="309" lat="" lon="">
    <tag k="local_x" v="-69.7104"/>
    <tag k="local_y" v="1.5866"/>
    <tag k="ele" v="0"/>
  </node>
  <node id="310" lat="" lon="">
    <tag k="local_x" v="-70.4104"/>
    <tag k="local_y" v="0.8144"/>
    <tag k="ele" v="0"/>
  </node>
  <node id="311" lat="" lon="">
    <tag k="local_x" v="-71.3607"/>
    <tag k="local_y" v="0.3393"/>
    <tag k="ele" v="0"/>
  </node>
  <node id="314" lat="" lon="">
    <tag k="local_x" v="-90.4804"/>
    <tag k="local_y" v="-2.6772"/>
    <tag k="ele" v="0"/>
  </node>
  <node id="318" lat="" lon="">
    <tag k="local_x" v="-70.281"/>
    <tag k="local_y" v="-2.7017"/>
    <tag k="ele" v="0"/>
  </node>
  <node id="319" lat="" lon="">
    <tag k="local_x" v="-68.2198"/>
    <tag k="local_y" v="-0.9675"/>
    <tag k="ele" v="0"/>
  </node>
  <node id="321" lat="" lon="">
    <tag k="local_x" v="-66.7999"/>
    <tag k="local_y" v="0.2756"/>
    <tag k="ele" v="0"/>
  </node>
  <node id="322" lat="" lon="">
    <tag k="local_x" v="-66.2751"/>
    <tag k="local_y" v="1.6039"/>
    <tag k="ele" v="0"/>
  </node>
  <node id="323" lat="" lon="">
    <tag k="local_x" v="-66.2961"/>
    <tag k="local_y" v="5.1767"/>
    <tag k="ele" v="0"/>
  </node>
  <node id="324" lat="" lon="">
    <tag k="local_x" v="-66.2334"/>
    <tag k="local_y" v="5.6805"/>
    <tag k="ele" v="0"/>
  </node>
  <node id="326" lat="" lon="">
    <tag k="local_x" v="-59.975"/>
    <tag k="local_y" v="7.0547"/>
    <tag k="ele" v="0"/>
  </node>
  <node id="327" lat="" lon="">
    <tag k="local_x" v="-59.1963"/>
    <tag k="local_y" v="6.505"/>
    <tag k="ele" v="0"/>
  </node>
  <node id="328" lat="" lon="">
    <tag k="local_x" v="-58.2803"/>
    <tag k="local_y" v="5.6347"/>
    <tag k="ele" v="0"/>
  </node>
  <node id="329" lat="" lon="">
    <tag k="local_x" v="-57.8222"/>
    <tag k="local_y" v="4.9476"/>
    <tag k="ele" v="0"/>
  </node>
  <node id="330" lat="" lon="">
    <tag k="local_x" v="-57.3301"/>
    <tag k="local_y" v="4.0423"/>
    <tag k="ele" v="0"/>
  </node>
  <node id="331" lat="" lon="">
    <tag k="local_x" v="-56.4589"/>
    <tag k="local_y" v="3.0336"/>
    <tag k="ele" v="0"/>
  </node>
  <node id="332" lat="" lon="">
    <tag k="local_x" v="-54.8551"/>
    <tag k="local_y" v="1.9927"/>
    <tag k="ele" v="0"/>
  </node>
  <node id="333" lat="" lon="">
    <tag k="local_x" v="-54.0303"/>
    <tag k="local_y" v="1.5899"/>
    <tag k="ele" v="0"/>
  </node>
  <node id="334" lat="" lon="">
    <tag k="local_x" v="-53.1065"/>
    <tag k="local_y" v="1.2552"/>
    <tag k="ele" v="0"/>
  </node>
  <node id="342" lat="" lon="">
    <tag k="local_x" v="-52.6382"/>
    <tag k="local_y" v="1.1168"/>
    <tag k="ele" v="0"/>
  </node>
  <node id="344" lat="" lon="">
    <tag k="local_x" v="-97.3227"/>
    <tag k="local_y" v="-19.4723"/>
    <tag k="ele" v="0"/>
  </node>
  <node id="345" lat="" lon="">
    <tag k="local_x" v="-97.3623"/>
    <tag k="local_y" v="-10.7989"/>
    <tag k="ele" v="0"/>
  </node>
  <node id="347" lat="" lon="">
    <tag k="local_x" v="-96.8921"/>
    <tag k="local_y" v="-9.7241"/>
    <tag k="ele" v="0"/>
  </node>
  <node id="348" lat="" lon="">
    <tag k="local_x" v="-95.8844"/>
    <tag k="local_y" v="-8.918"/>
    <tag k="ele" v="0"/>
  </node>
  <node id="349" lat="" lon="">
    <tag k="local_x" v="-95.2127"/>
    <tag k="local_y" v="-8.6493"/>
    <tag k="ele" v="0"/>
  </node>
  <node id="350" lat="" lon="">
    <tag k="local_x" v="66.0211"/>
    <tag k="local_y" v="-8.5765"/>
    <tag k="ele" v="0"/>
  </node>
  <node id="352" lat="" lon="">
    <tag k="local_x" v="66.0295"/>
    <tag k="local_y" v="-8.5774"/>
    <tag k="ele" v="0"/>
  </node>
  <node id="355" lat="" lon="">
    <tag k="local_x" v="-54.0455"/>
    <tag k="local_y" v="-5.4031"/>
    <tag k="ele" v="0"/>
  </node>
  <node id="360" lat="" lon="">
    <tag k="local_x" v="-110.8956"/>
    <tag k="local_y" v="-5.6701"/>
    <tag k="ele" v="0"/>
  </node>
  <node id="361" lat="" lon="">
    <tag k="local_x" v="-105.39"/>
    <tag k="local_y" v="-5.6389"/>
    <tag k="ele" v="0"/>
  </node>
  <node id="377" lat="" lon="">
    <tag k="local_x" v="-97.3318"/>
    <tag k="local_y" v="-11.4462"/>
    <tag k="ele" v="0"/>
  </node>
  <node id="378" lat="" lon="">
    <tag k="local_x" v="-103.3174"/>
    <tag k="local_y" v="-11.4462"/>
    <tag k="ele" v="0"/>
  </node>
  <node id="383" lat="" lon="">
    <tag k="local_x" v="-110.9353"/>
    <tag k="local_y" v="-2.6399"/>
    <tag k="ele" v="0"/>
  </node>
  <node id="389" lat="" lon="">
    <tag k="local_x" v="-105.4029"/>
    <tag k="local_y" v="-5.639"/>
    <tag k="ele" v="0"/>
  </node>
  <node id="391" lat="" lon="">
    <tag k="local_x" v="-60.0224"/>
    <tag k="local_y" v="7.0534"/>
    <tag k="ele" v="0"/>
  </node>
  <node id="393" lat="" lon="">
    <tag k="local_x" v="-59.8918"/>
    <tag k="local_y" v="10.1214"/>
    <tag k="ele" v="0"/>
  </node>
  <node id="396" lat="" lon="">
    <tag k="local_x" v="-64.9441"/>
    <tag k="local_y" v="6.9178"/>
    <tag k="ele" v="0"/>
  </node>
  <node id="398" lat="" lon="">
    <tag k="local_x" v="-64.9977"/>
    <tag k="local_y" v="10.2004"/>
    <tag k="ele" v="0"/>
  </node>
  <node id="427" lat="" lon="">
    <tag k="local_x" v="-66.1701"/>
    <tag k="local_y" v="5.8659"/>
    <tag k="ele" v="0"/>
  </node>
  <node id="430" lat="" lon="">
    <tag k="local_x" v="-69.4591"/>
    <tag k="local_y" v="6.6654"/>
    <tag k="ele" v="0"/>
  </node>
  <node id="446" lat="" lon="">
    <tag k="local_x" v="-71.3688"/>
    <tag k="local_y" v="0.3393"/>
    <tag k="ele" v="0"/>
  </node>
  <node id="448" lat="" lon="">
    <tag k="local_x" v="-70.2275"/>
    <tag k="local_y" v="-2.0825"/>
    <tag k="ele" v="0"/>
  </node>
  <node id="467" lat="" lon="">
    <tag k="local_x" v="-65.0636"/>
    <tag k="local_y" v="6.929"/>
    <tag k="ele" v="0"/>
  </node>
  <node id="468" lat="" lon="">
    <tag k="local_x" v="-65.3994"/>
    <tag k="local_y" v="6.8261"/>
    <tag k="ele" v="0"/>
  </node>
  <node id="469" lat="" lon="">
    <tag k="local_x" v="-65.5789"/>
    <tag k="local_y" v="6.7236"/>
    <tag k="ele" v="0"/>
  </node>
  <node id="470" lat="" lon="">
    <tag k="local_x" v="-65.7357"/>
    <tag k="local_y" v="6.5932"/>
    <tag k="ele" v="0"/>
  </node>
  <node id="471" lat="" lon="">
    <tag k="local_x" v="-65.8659"/>
    <tag k="local_y" v="6.4395"/>
    <tag k="ele" v="0"/>
  </node>
  <node id="472" lat="" lon="">
    <tag k="local_x" v="-66.0037"/>
    <tag k="local_y" v="6.2679"/>
    <tag k="ele" v="0"/>
  </node>
  <node id="473" lat="" lon="">
    <tag k="local_x" v="-66.0907"/>
    <tag k="local_y" v="6.0402"/>
    <tag k="ele" v="0"/>
  </node>
  <node id="474" lat="" lon="">
    <tag k="local_x" v="-65.943"/>
    <tag k="local_y" v="10.092"/>
    <tag k="ele" v="0"/>
  </node>
  <node id="475" lat="" lon="">
    <tag k="local_x" v="-66.5606"/>
    <tag k="local_y" v="9.9298"/>
    <tag k="ele" v="0"/>
  </node>
  <node id="476" lat="" lon="">
    <tag k="local_x" v="-67.2745"/>
    <tag k="local_y" v="9.6064"/>
    <tag k="ele" v="0"/>
  </node>
  <node id="477" lat="" lon="">
    <tag k="local_x" v="-67.9239"/>
    <tag k="local_y" v="9.163"/>
    <tag k="ele" v="0"/>
  </node>
  <node id="478" lat="" lon="">
    <tag k="local_x" v="-68.4888"/>
    <tag k="local_y" v="8.6121"/>
    <tag k="ele" v="0"/>
  </node>
  <node id="479" lat="" lon="">
    <tag k="local_x" v="-68.9516"/>
    <tag k="local_y" v="7.9698"/>
    <tag k="ele" v="0"/>
  </node>
  <node id="480" lat="" lon="">
    <tag k="local_x" v="-69.2405"/>
    <tag k="local_y" v="7.394"/>
    <tag k="ele" v="0"/>
  </node>
  <node id="502" lat="" lon="">
    <tag k="local_x" v="-105.5693"/>
    <tag k="local_y" v="10.1402"/>
    <tag k="ele" v="0"/>
  </node>
  <node id="506" lat="" lon="">
    <tag k="local_x" v="-105.7945"/>
    <tag k="local_y" v="7.0924"/>
    <tag k="ele" v="0"/>
  </node>
  <node id="515" lat="" lon="">
    <tag k="local_x" v="-103.8064"/>
    <tag k="local_y" v="9.5193"/>
    <tag k="ele" v="0"/>
  </node>
  <node id="519" lat="" lon="">
    <tag k="local_x" v="-104.2654"/>
    <tag k="local_y" v="6.4462"/>
    <tag k="ele" v="0"/>
  </node>
  <node id="592" lat="" lon="">
    <tag k="local_x" v="-49.5269"/>
    <tag k="local_y" v="-5.4029"/>
    <tag k="ele" v="0"/>
  </node>
  <node id="594" lat="" lon="">
    <tag k="local_x" v="-53.979"/>
    <tag k="local_y" v="-5.3914"/>
    <tag k="ele" v="0"/>
  </node>
  <node id="715" lat="" lon="">
    <tag k="local_x" v="-94.3848"/>
    <tag k="local_y" v="-8.6489"/>
    <tag k="ele" v="0"/>
  </node>
  <node id="718" lat="" lon="">
    <tag k="local_x" v="-54.1029"/>
    <tag k="local_y" v="-8.6307"/>
    <tag k="ele" v="0"/>
  </node>
  <node id="777" lat="" lon="">
    <tag k="local_x" v="-104.9419"/>
    <tag k="local_y" v="-8.8441"/>
    <tag k="ele" v="0"/>
  </node>
  <node id="874" lat="" lon="">
    <tag k="local_x" v="-70.2451"/>
    <tag k="local_y" v="-2.7241"/>
    <tag k="ele" v="0"/>
  </node>
  <node id="948" lat="" lon="">
    <tag k="local_x" v="-70.3718"/>
    <tag k="local_y" v="-5.5206"/>
    <tag k="ele" v="0"/>
  </node>
  <node id="1002" lat="" lon="">
    <tag k="local_x" v="-70.3549"/>
    <tag k="local_y" v="-8.638"/>
    <tag k="ele" v="0"/>
  </node>
  <node id="1021" lat="" lon="">
    <tag k="local_x" v="-90.5151"/>
    <tag k="local_y" v="-5.5344"/>
    <tag k="ele" v="0"/>
  </node>
  <node id="1121" lat="" lon="">
    <tag k="local_x" v="-94.3184"/>
    <tag k="local_y" v="-5.7551"/>
    <tag k="ele" v="0"/>
  </node>
  <node id="1122" lat="" lon="">
    <tag k="local_x" v="-70.3837"/>
    <tag k="local_y" v="-5.528"/>
    <tag k="ele" v="0"/>
  </node>
  <node id="1124" lat="" lon="">
    <tag k="local_x" v="-94.3196"/>
    <tag k="local_y" v="-8.6508"/>
    <tag k="ele" v="0"/>
  </node>
  <node id="1125" lat="" lon="">
    <tag k="local_x" v="-70.3648"/>
    <tag k="local_y" v="-8.647"/>
    <tag k="ele" v="0"/>
  </node>
  <node id="1159" lat="" lon="">
    <tag k="local_x" v="61.9607"/>
    <tag k="local_y" v="4.6459"/>
    <tag k="ele" v="1.8"/>
  </node>
  <node id="1160" lat="" lon="">
    <tag k="local_x" v="61.9596"/>
    <tag k="local_y" v="4.7844"/>
    <tag k="ele" v="1.8"/>
  </node>
  <node id="1162" lat="" lon="">
    <tag k="local_x" v="63.5168"/>
    <tag k="local_y" v="4.0848"/>
    <tag k="ele" v="0"/>
  </node>
  <node id="1163" lat="" lon="">
    <tag k="local_x" v="63.511"/>
    <tag k="local_y" v="1.2448"/>
    <tag k="ele" v="0"/>
  </node>
  <node id="1172" lat="" lon="">
    <tag k="local_x" v="-51.9387"/>
    <tag k="local_y" v="4.0589"/>
    <tag k="ele" v="0"/>
  </node>
  <node id="1174" lat="" lon="">
    <tag k="local_x" v="-51.925"/>
    <tag k="local_y" v="1.1055"/>
    <tag k="ele" v="0"/>
  </node>
  <node id="1177" lat="" lon="">
    <tag k="local_x" v="-12.8952"/>
    <tag k="local_y" v="4.8254"/>
    <tag k="ele" v="1.8"/>
  </node>
  <node id="1178" lat="" lon="">
    <tag k="local_x" v="-12.8962"/>
    <tag k="local_y" v="4.7094"/>
    <tag k="ele" v="1.8"/>
  </node>
  <node id="1183" lat="" lon="">
    <tag k="local_x" v="-9.3917"/>
    <tag k="local_y" v="4.0281"/>
    <tag k="ele" v="0"/>
  </node>
  <node id="1184" lat="" lon="">
    <tag k="local_x" v="-9.3961"/>
    <tag k="local_y" v="1.1974"/>
    <tag k="ele" v="0"/>
  </node>
  <node id="1186" lat="" lon="">
    <tag k="local_x" v="61.967"/>
    <tag k="local_y" v="4.6439"/>
    <tag k="ele" v="1.7"/>
  </node>
  <node id="1187" lat="" lon="">
    <tag k="local_x" v="61.9622"/>
    <tag k="local_y" v="4.7772"/>
    <tag k="ele" v="1.7"/>
  </node>
  <node id="1189" lat="" lon="">
    <tag k="local_x" v="-12.8955"/>
    <tag k="local_y" v="4.8332"/>
    <tag k="ele" v="1.7"/>
  </node>
  <node id="1190" lat="" lon="">
    <tag k="local_x" v="-12.8908"/>
    <tag k="local_y" v="4.7147"/>
    <tag k="ele" v="1.7"/>
  </node>
  <node id="1194" lat="" lon="">
    <tag k="local_x" v="-40.6704"/>
    <tag k="local_y" v="1.1418"/>
    <tag k="ele" v="0"/>
  </node>
  <node id="1195" lat="" lon="">
    <tag k="local_x" v="-40.683"/>
    <tag k="local_y" v="4.0319"/>
    <tag k="ele" v="0"/>
  </node>
  <node id="1196" lat="" lon="">
    <tag k="local_x" v="-36.5192"/>
    <tag k="local_y" v="4.0287"/>
    <tag k="ele" v="0"/>
  </node>
  <node id="1198" lat="" lon="">
    <tag k="local_x" v="-36.5576"/>
    <tag k="local_y" v="1.1262"/>
    <tag k="ele" v="0"/>
  </node>
  <node id="1199" lat="" lon="">
    <tag k="local_x" v="-34.1943"/>
    <tag k="local_y" v="4.0357"/>
    <tag k="ele" v="0"/>
  </node>
  <node id="1200" lat="" lon="">
    <tag k="local_x" v="-34.2243"/>
    <tag k="local_y" v="1.1367"/>
    <tag k="ele" v="0"/>
  </node>
  <node id="1209" lat="" lon="">
    <tag k="local_x" v="12.6498"/>
    <tag k="local_y" v="4.0589"/>
    <tag k="ele" v="0"/>
  </node>
  <node id="1213" lat="" lon="">
    <tag k="local_x" v="12.4754"/>
    <tag k="local_y" v="1.1666"/>
    <tag k="ele" v="0"/>
  </node>
  <node id="1220" lat="" lon="">
    <tag k="local_x" v="-40.6941"/>
    <tag k="local_y" v="-5.4596"/>
    <tag k="ele" v="0"/>
  </node>
  <node id="1221" lat="" lon="">
    <tag k="local_x" v="-36.4799"/>
    <tag k="local_y" v="-5.4834"/>
    <tag k="ele" v="0"/>
  </node>
  <node id="1222" lat="" lon="">
    <tag k="local_x" v="-36.4923"/>
    <tag k="local_y" v="-8.5599"/>
    <tag k="ele" v="0"/>
  </node>
  <node id="1224" lat="" lon="">
    <tag k="local_x" v="-40.7335"/>
    <tag k="local_y" v="-8.5718"/>
    <tag k="ele" v="0"/>
  </node>
  <node id="1226" lat="" lon="">
    <tag k="local_x" v="-43.7514"/>
    <tag k="local_y" v="-5.433"/>
    <tag k="ele" v="0"/>
  </node>
  <node id="1227" lat="" lon="">
    <tag k="local_x" v="-43.7593"/>
    <tag k="local_y" v="-8.6169"/>
    <tag k="ele" v="0"/>
  </node>
  <node id="1238" lat="" lon="">
    <tag k="local_x" v="-110.2005"/>
    <tag k="local_y" v="-2.6729"/>
    <tag k="ele" v="0"/>
  </node>
  <node id="1239" lat="" lon="">
    <tag k="local_x" v="-106.1245"/>
    <tag k="local_y" v="-2.6593"/>
    <tag k="ele" v="0"/>
  </node>
  <node id="1240" lat="" lon="">
    <tag k="local_x" v="-106.108"/>
    <tag k="local_y" v="-5.6126"/>
    <tag k="ele" v="0"/>
  </node>
  <node id="1242" lat="" lon="">
    <tag k="local_x" v="-110.1777"/>
    <tag k="local_y" v="-5.6033"/>
    <tag k="ele" v="0"/>
  </node>
  <node id="1243" lat="" lon="">
    <tag k="local_x" v="-112.5082"/>
    <tag k="local_y" v="-2.6309"/>
    <tag k="ele" v="0"/>
  </node>
  <node id="1244" lat="" lon="">
    <tag k="local_x" v="-112.5203"/>
    <tag k="local_y" v="-5.648"/>
    <tag k="ele" v="0"/>
  </node>
  <node id="1246" lat="" lon="">
    <tag k="local_x" v="-119.1744"/>
    <tag k="local_y" v="-2.6792"/>
    <tag k="ele" v="0"/>
  </node>
  <node id="1248" lat="" lon="">
    <tag k="local_x" v="-119.1476"/>
    <tag k="local_y" v="-5.6803"/>
    <tag k="ele" v="0"/>
  </node>
  <node id="1252" lat="" lon="">
    <tag k="local_x" v="-90.588"/>
    <tag k="local_y" v="-2.68"/>
    <tag k="ele" v="0"/>
  </node>
  <node id="1253" lat="" lon="">
    <tag k="local_x" v="-105.5806"/>
    <tag k="local_y" v="-2.7111"/>
    <tag k="ele" v="0"/>
  </node>
  <node id="1255" lat="" lon="">
    <tag k="local_x" v="-105.4135"/>
    <tag k="local_y" v="-5.6326"/>
    <tag k="ele" v="0"/>
  </node>
  <node id="1257" lat="" lon="">
    <tag k="local_x" v="-96.027"/>
    <tag k="local_y" v="-5.7633"/>
    <tag k="ele" v="0"/>
  </node>
  <node id="1258" lat="" lon="">
    <tag k="local_x" v="-96.0131"/>
    <tag k="local_y" v="-8.6589"/>
    <tag k="ele" v="0"/>
  </node>
  <node id="1267" lat="" lon="">
    <tag k="local_x" v="-103.3001"/>
    <tag k="local_y" v="-0.2074"/>
    <tag k="ele" v="0"/>
  </node>
  <node id="1269" lat="" lon="">
    <tag k="local_x" v="-103.2986"/>
    <tag k="local_y" v="-0.6963"/>
    <tag k="ele" v="0"/>
  </node>
  <node id="1270" lat="" lon="">
    <tag k="local_x" v="-103.2974"/>
    <tag k="local_y" v="-1.1821"/>
    <tag k="ele" v="0"/>
  </node>
  <node id="1271" lat="" lon="">
    <tag k="local_x" v="-103.296"/>
    <tag k="local_y" v="-1.6717"/>
    <tag k="ele" v="0"/>
  </node>
  <node id="1272" lat="" lon="">
    <tag k="local_x" v="-103.2938"/>
    <tag k="local_y" v="-2.1658"/>
    <tag k="ele" v="0"/>
  </node>
  <node id="1273" lat="" lon="">
    <tag k="local_x" v="-103.29"/>
    <tag k="local_y" v="-2.667"/>
    <tag k="ele" v="0"/>
  </node>
  <node id="1274" lat="" lon="">
    <tag k="local_x" v="-103.2826"/>
    <tag k="local_y" v="-3.1736"/>
    <tag k="ele" v="0"/>
  </node>
  <node id="1275" lat="" lon="">
    <tag k="local_x" v="-103.2747"/>
    <tag k="local_y" v="-3.7114"/>
    <tag k="ele" v="0"/>
  </node>
  <node id="1276" lat="" lon="">
    <tag k="local_x" v="-103.1567"/>
    <tag k="local_y" v="-4.8228"/>
    <tag k="ele" v="0"/>
  </node>
  <node id="1277" lat="" lon="">
    <tag k="local_x" v="-102.5394"/>
    <tag k="local_y" v="-6.2489"/>
    <tag k="ele" v="0"/>
  </node>
  <node id="1278" lat="" lon="">
    <tag k="local_x" v="-101.5414"/>
    <tag k="local_y" v="-7.3839"/>
    <tag k="ele" v="0"/>
  </node>
  <node id="1279" lat="" lon="">
    <tag k="local_x" v="-100.7597"/>
    <tag k="local_y" v="-7.8959"/>
    <tag k="ele" v="0"/>
  </node>
  <node id="1280" lat="" lon="">
    <tag k="local_x" v="-99.8961"/>
    <tag k="local_y" v="-8.4088"/>
    <tag k="ele" v="0"/>
  </node>
  <node id="1281" lat="" lon="">
    <tag k="local_x" v="-98.6797"/>
    <tag k="local_y" v="-8.6328"/>
    <tag k="ele" v="0"/>
  </node>
  <node id="1282" lat="" lon="">
    <tag k="local_x" v="-98"/>
    <tag k="local_y" v="-8.6629"/>
    <tag k="ele" v="0"/>
  </node>
  <node id="1283" lat="" lon="">
    <tag k="local_x" v="-97.5125"/>
    <tag k="local_y" v="-8.6773"/>
    <tag k="ele" v="0"/>
  </node>
  <node id="1284" lat="" lon="">
    <tag k="local_x" v="-96.9636"/>
    <tag k="local_y" v="-8.6493"/>
    <tag k="ele" v="0"/>
  </node>
  <node id="1285" lat="" lon="">
    <tag k="local_x" v="-96.4487"/>
    <tag k="local_y" v="-8.6642"/>
    <tag k="ele" v="0"/>
  </node>
  <node id="1305" lat="" lon="">
    <tag k="local_x" v="-96.0871"/>
    <tag k="local_y" v="-8.6673"/>
    <tag k="ele" v="0"/>
  </node>
  <node id="1306" lat="" lon="">
    <tag k="local_x" v="-100.3001"/>
    <tag k="local_y" v="-0.2024"/>
    <tag k="ele" v="0"/>
  </node>
  <node id="1315" lat="" lon="">
    <tag k="local_x" v="-100.2986"/>
    <tag k="local_y" v="-0.688"/>
    <tag k="ele" v="0"/>
  </node>
  <node id="1316" lat="" lon="">
    <tag k="local_x" v="-100.2974"/>
    <tag k="local_y" v="-1.1741"/>
    <tag k="ele" v="0"/>
  </node>
  <node id="1317" lat="" lon="">
    <tag k="local_x" v="-100.296"/>
    <tag k="local_y" v="-1.6609"/>
    <tag k="ele" v="0"/>
  </node>
  <node id="1318" lat="" lon="">
    <tag k="local_x" v="-100.2939"/>
    <tag k="local_y" v="-2.1479"/>
    <tag k="ele" v="0"/>
  </node>
  <node id="1319" lat="" lon="">
    <tag k="local_x" v="-100.2902"/>
    <tag k="local_y" v="-2.6335"/>
    <tag k="ele" v="0"/>
  </node>
  <node id="1320" lat="" lon="">
    <tag k="local_x" v="-100.2829"/>
    <tag k="local_y" v="-3.1318"/>
    <tag k="ele" v="0"/>
  </node>
  <node id="1321" lat="" lon="">
    <tag k="local_x" v="-100.2767"/>
    <tag k="local_y" v="-3.6028"/>
    <tag k="ele" v="0"/>
  </node>
  <node id="1322" lat="" lon="">
    <tag k="local_x" v="-100.2483"/>
    <tag k="local_y" v="-4.0871"/>
    <tag k="ele" v="0"/>
  </node>
  <node id="1323" lat="" lon="">
    <tag k="local_x" v="-100.0189"/>
    <tag k="local_y" v="-4.622"/>
    <tag k="ele" v="0"/>
  </node>
  <node id="1324" lat="" lon="">
    <tag k="local_x" v="-99.5925"/>
    <tag k="local_y" v="-5.1031"/>
    <tag k="ele" v="0"/>
  </node>
  <node id="1325" lat="" lon="">
    <tag k="local_x" v="-99.1503"/>
    <tag k="local_y" v="-5.3642"/>
    <tag k="ele" v="0"/>
  </node>
  <node id="1326" lat="" lon="">
    <tag k="local_x" v="-98.7605"/>
    <tag k="local_y" v="-5.632"/>
    <tag k="ele" v="0"/>
  </node>
  <node id="1327" lat="" lon="">
    <tag k="local_x" v="-98.3035"/>
    <tag k="local_y" v="-5.7105"/>
    <tag k="ele" v="0"/>
  </node>
  <node id="1328" lat="" lon="">
    <tag k="local_x" v="-97.8792"/>
    <tag k="local_y" v="-5.7434"/>
    <tag k="ele" v="0"/>
  </node>
  <node id="1329" lat="" lon="">
    <tag k="local_x" v="-97.4103"/>
    <tag k="local_y" v="-5.7465"/>
    <tag k="ele" v="0"/>
  </node>
  <node id="1330" lat="" lon="">
    <tag k="local_x" v="-96.9373"/>
    <tag k="local_y" v="-5.7755"/>
    <tag k="ele" v="0"/>
  </node>
  <node id="1331" lat="" lon="">
    <tag k="local_x" v="-96.4524"/>
    <tag k="local_y" v="-5.7549"/>
    <tag k="ele" v="0"/>
  </node>
  <node id="1339" lat="" lon="">
    <tag k="local_x" v="-95.9767"/>
    <tag k="local_y" v="-5.7743"/>
    <tag k="ele" v="0"/>
  </node>
  <node id="1340" lat="" lon="">
    <tag k="local_x" v="-100.3002"/>
    <tag k="local_y" v="0.275"/>
    <tag k="ele" v="0"/>
  </node>
  <node id="1343" lat="" lon="">
    <tag k="local_x" v="-70.1726"/>
    <tag k="local_y" v="-2.0667"/>
    <tag k="ele" v="0"/>
  </node>
  <node id="1344" lat="" lon="">
    <tag k="local_x" v="-71.3077"/>
    <tag k="local_y" v="-2.0667"/>
    <tag k="ele" v="0"/>
  </node>
  <node id="1346" lat="" lon="">
    <tag k="local_x" v="-73.0437"/>
    <tag k="local_y" v="-2.0667"/>
    <tag k="ele" v="0"/>
  </node>
  <node id="1347" lat="" lon="">
    <tag k="local_x" v="-76.7163"/>
    <tag k="local_y" v="-2.0093"/>
    <tag k="ele" v="0"/>
  </node>
  <node id="1348" lat="" lon="">
    <tag k="local_x" v="-78.7439"/>
    <tag k="local_y" v="-2.0491"/>
    <tag k="ele" v="0"/>
  </node>
  <node id="1349" lat="" lon="">
    <tag k="local_x" v="-80.215"/>
    <tag k="local_y" v="-2.0888"/>
    <tag k="ele" v="0"/>
  </node>
  <node id="1354" lat="" lon="">
    <tag k="local_x" v="-81.5836"/>
    <tag k="local_y" v="-2.1861"/>
    <tag k="ele" v="0"/>
  </node>
  <node id="1355" lat="" lon="">
    <tag k="local_x" v="-82.0492"/>
    <tag k="local_y" v="-2.4377"/>
    <tag k="ele" v="0"/>
  </node>
  <node id="1356" lat="" lon="">
    <tag k="local_x" v="-82.4191"/>
    <tag k="local_y" v="-2.7666"/>
    <tag k="ele" v="0"/>
  </node>
  <node id="1357" lat="" lon="">
    <tag k="local_x" v="-82.8542"/>
    <tag k="local_y" v="-3.1296"/>
    <tag k="ele" v="0"/>
  </node>
  <node id="1358" lat="" lon="">
    <tag k="local_x" v="-83.3278"/>
    <tag k="local_y" v="-3.4643"/>
    <tag k="ele" v="0"/>
  </node>
  <node id="1359" lat="" lon="">
    <tag k="local_x" v="-83.7791"/>
    <tag k="local_y" v="-3.7467"/>
    <tag k="ele" v="0"/>
  </node>
  <node id="1360" lat="" lon="">
    <tag k="local_x" v="-84.2178"/>
    <tag k="local_y" v="-4.0667"/>
    <tag k="ele" v="0"/>
  </node>
  <node id="1361" lat="" lon="">
    <tag k="local_x" v="-84.6587"/>
    <tag k="local_y" v="-4.2691"/>
    <tag k="ele" v="0"/>
  </node>
  <node id="1362" lat="" lon="">
    <tag k="local_x" v="-85.1198"/>
    <tag k="local_y" v="-4.5133"/>
    <tag k="ele" v="0"/>
  </node>
  <node id="1363" lat="" lon="">
    <tag k="local_x" v="-85.6265"/>
    <tag k="local_y" v="-4.6773"/>
    <tag k="ele" v="0"/>
  </node>
  <node id="1364" lat="" lon="">
    <tag k="local_x" v="-86.1559"/>
    <tag k="local_y" v="-4.8565"/>
    <tag k="ele" v="0"/>
  </node>
  <node id="1365" lat="" lon="">
    <tag k="local_x" v="-86.6823"/>
    <tag k="local_y" v="-5.0526"/>
    <tag k="ele" v="0"/>
  </node>
  <node id="1366" lat="" lon="">
    <tag k="local_x" v="-87.1924"/>
    <tag k="local_y" v="-5.1809"/>
    <tag k="ele" v="0"/>
  </node>
  <node id="1367" lat="" lon="">
    <tag k="local_x" v="-87.7341"/>
    <tag k="local_y" v="-5.3567"/>
    <tag k="ele" v="0"/>
  </node>
  <node id="1368" lat="" lon="">
    <tag k="local_x" v="-88.2728"/>
    <tag k="local_y" v="-5.448"/>
    <tag k="ele" v="0"/>
  </node>
  <node id="1369" lat="" lon="">
    <tag k="local_x" v="-88.816"/>
    <tag k="local_y" v="-5.5001"/>
    <tag k="ele" v="0"/>
  </node>
  <node id="1370" lat="" lon="">
    <tag k="local_x" v="-89.359"/>
    <tag k="local_y" v="-5.5009"/>
    <tag k="ele" v="0"/>
  </node>
  <node id="1371" lat="" lon="">
    <tag k="local_x" v="-89.8976"/>
    <tag k="local_y" v="-5.5077"/>
    <tag k="ele" v="0"/>
  </node>
  <node id="1387" lat="" lon="">
    <tag k="local_x" v="-90.3606"/>
    <tag k="local_y" v="-5.5296"/>
    <tag k="ele" v="0"/>
  </node>
  <node id="1388" lat="" lon="">
    <tag k="local_x" v="-90.0058"/>
    <tag k="local_y" v="-2.6722"/>
    <tag k="ele" v="0"/>
  </node>
  <node id="1390" lat="" lon="">
    <tag k="local_x" v="-89.5118"/>
    <tag k="local_y" v="-2.6261"/>
    <tag k="ele" v="0"/>
  </node>
  <node id="1391" lat="" lon="">
    <tag k="local_x" v="-88.9956"/>
    <tag k="local_y" v="-2.5568"/>
    <tag k="ele" v="0"/>
  </node>
  <node id="1392" lat="" lon="">
    <tag k="local_x" v="-88.487"/>
    <tag k="local_y" v="-2.4512"/>
    <tag k="ele" v="0"/>
  </node>
  <node id="1393" lat="" lon="">
    <tag k="local_x" v="-87.9847"/>
    <tag k="local_y" v="-2.3515"/>
    <tag k="ele" v="0"/>
  </node>
  <node id="1394" lat="" lon="">
    <tag k="local_x" v="-87.4787"/>
    <tag k="local_y" v="-2.2392"/>
    <tag k="ele" v="0"/>
  </node>
  <node id="1395" lat="" lon="">
    <tag k="local_x" v="-87.0078"/>
    <tag k="local_y" v="-2.0458"/>
    <tag k="ele" v="0"/>
  </node>
  <node id="1396" lat="" lon="">
    <tag k="local_x" v="-86.6042"/>
    <tag k="local_y" v="-1.8993"/>
    <tag k="ele" v="0"/>
  </node>
  <node id="1397" lat="" lon="">
    <tag k="local_x" v="-86.1406"/>
    <tag k="local_y" v="-1.6711"/>
    <tag k="ele" v="0"/>
  </node>
  <node id="1398" lat="" lon="">
    <tag k="local_x" v="-85.6636"/>
    <tag k="local_y" v="-1.4087"/>
    <tag k="ele" v="0"/>
  </node>
  <node id="1399" lat="" lon="">
    <tag k="local_x" v="-85.1967"/>
    <tag k="local_y" v="-1.2018"/>
    <tag k="ele" v="0"/>
  </node>
  <node id="1400" lat="" lon="">
    <tag k="local_x" v="-84.7332"/>
    <tag k="local_y" v="-0.9832"/>
    <tag k="ele" v="0"/>
  </node>
  <node id="1401" lat="" lon="">
    <tag k="local_x" v="-84.2619"/>
    <tag k="local_y" v="-0.7454"/>
    <tag k="ele" v="0"/>
  </node>
  <node id="1402" lat="" lon="">
    <tag k="local_x" v="-83.78"/>
    <tag k="local_y" v="-0.4539"/>
    <tag k="ele" v="0"/>
  </node>
  <node id="1403" lat="" lon="">
    <tag k="local_x" v="-83.3617"/>
    <tag k="local_y" v="-0.2065"/>
    <tag k="ele" v="0"/>
  </node>
  <node id="1404" lat="" lon="">
    <tag k="local_x" v="-82.8993"/>
    <tag k="local_y" v="-0.0089"/>
    <tag k="ele" v="0"/>
  </node>
  <node id="1405" lat="" lon="">
    <tag k="local_x" v="-82.4068"/>
    <tag k="local_y" v="0.1591"/>
    <tag k="ele" v="0"/>
  </node>
  <node id="1406" lat="" lon="">
    <tag k="local_x" v="-81.8874"/>
    <tag k="local_y" v="0.2638"/>
    <tag k="ele" v="0"/>
  </node>
  <node id="1429" lat="" lon="">
    <tag k="local_x" v="-77.7597"/>
    <tag k="local_y" v="-2.0298"/>
    <tag k="ele" v="0"/>
  </node>
  <node id="1433" lat="" lon="">
    <tag k="local_x" v="-81.4123"/>
    <tag k="local_y" v="0.258"/>
    <tag k="ele" v="0"/>
  </node>
  <node id="1435" lat="" lon="">
    <tag k="local_x" v="-77.9318"/>
    <tag k="local_y" v="0.2836"/>
    <tag k="ele" v="0"/>
  </node>
  <node id="1436" lat="" lon="">
    <tag k="local_x" v="-71.3764"/>
    <tag k="local_y" v="0.3348"/>
    <tag k="ele" v="0"/>
  </node>
  <node id="1438" lat="" lon="">
    <tag k="local_x" v="-81.366"/>
    <tag k="local_y" v="0.2644"/>
    <tag k="ele" v="0"/>
  </node>
  <node id="1439" lat="" lon="">
    <tag k="local_x" v="-81.1384"/>
    <tag k="local_y" v="0.2695"/>
    <tag k="ele" v="0"/>
  </node>
  <node id="1441" lat="" lon="">
    <tag k="local_x" v="-77.9437"/>
    <tag k="local_y" v="0.2935"/>
    <tag k="ele" v="0"/>
  </node>
  <node id="1442" lat="" lon="">
    <tag k="local_x" v="-77.7783"/>
    <tag k="local_y" v="-2.0302"/>
    <tag k="ele" v="0"/>
  </node>
  <node id="1445" lat="" lon="">
    <tag k="local_x" v="-81.1213"/>
    <tag k="local_y" v="-2.1037"/>
    <tag k="ele" v="0"/>
  </node>
  <node id="1460" lat="" lon="">
    <tag k="local_x" v="-68.3942"/>
    <tag k="local_y" v="-5.5064"/>
    <tag k="ele" v="0"/>
  </node>
  <node id="1461" lat="" lon="">
    <tag k="local_x" v="-68.3823"/>
    <tag k="local_y" v="-8.6371"/>
    <tag k="ele" v="0"/>
  </node>
  <way id="320">
    <nd ref="318"/>
    <nd ref="448"/>
    <tag k="type" v="line_thin"/>
    <tag k="subtype" v="solid"/>
  </way>
  <way id="346">
    <nd ref="344"/>
    <nd ref="345"/>
    <nd ref="347"/>
    <nd ref="348"/>
    <nd ref="349"/>
    <nd ref="715"/>
    <tag k="type" v="line_thin"/>
    <tag k="subtype" v="solid"/>
  </way>
  <way id="379">
    <nd ref="377"/>
    <nd ref="378"/>
    <tag k="type" v="line_thin"/>
    <tag k="subtype" v="solid"/>
  </way>
  <way id="390">
    <nd ref="389"/>
    <nd ref="361"/>
    <tag k="type" v="line_thin"/>
    <tag k="subtype" v="solid"/>
  </way>
  <way id="440">
    <nd ref="5"/>
    <nd ref="69"/>
    <nd ref="68"/>
    <nd ref="67"/>
    <nd ref="66"/>
    <nd ref="65"/>
    <nd ref="64"/>
    <nd ref="63"/>
    <nd ref="62"/>
    <nd ref="61"/>
    <nd ref="60"/>
    <nd ref="1213"/>
    <tag k="type" v="line_thin"/>
    <tag k="subtype" v="solid"/>
  </way>
  <way id="441">
    <nd ref="1"/>
    <nd ref="32"/>
    <nd ref="31"/>
    <nd ref="30"/>
    <nd ref="29"/>
    <nd ref="28"/>
    <nd ref="27"/>
    <nd ref="26"/>
    <nd ref="25"/>
    <nd ref="24"/>
    <nd ref="23"/>
    <nd ref="1209"/>
    <tag k="type" v="line_thin"/>
    <tag k="subtype" v="solid"/>
  </way>
  <way id="525">
    <nd ref="289"/>
    <nd ref="238"/>
    <nd ref="162"/>
    <nd ref="161"/>
    <nd ref="519"/>
    <nd ref="160"/>
    <nd ref="159"/>
    <nd ref="158"/>
    <nd ref="506"/>
    <nd ref="157"/>
    <nd ref="156"/>
    <nd ref="155"/>
    <nd ref="154"/>
    <nd ref="153"/>
    <nd ref="152"/>
    <nd ref="151"/>
    <nd ref="1246"/>
    <tag k="type" v="line_thin"/>
    <tag k="subtype" v="solid"/>
  </way>
  <way id="526">
    <nd ref="1340"/>
    <nd ref="116"/>
    <nd ref="234"/>
    <nd ref="236"/>
    <nd ref="237"/>
    <nd ref="235"/>
    <nd ref="117"/>
    <nd ref="291"/>
    <nd ref="120"/>
    <nd ref="121"/>
    <nd ref="122"/>
    <nd ref="515"/>
    <nd ref="502"/>
    <nd ref="125"/>
    <nd ref="126"/>
    <nd ref="127"/>
    <nd ref="128"/>
    <nd ref="129"/>
    <nd ref="130"/>
    <nd ref="131"/>
    <nd ref="132"/>
    <nd ref="133"/>
    <nd ref="134"/>
    <nd ref="135"/>
    <nd ref="137"/>
    <nd ref="138"/>
    <nd ref="139"/>
    <nd ref="1248"/>
    <tag k="type" v="line_thin"/>
    <tag k="subtype" v="solid"/>
  </way>
  <way id="778">
    <nd ref="777"/>
    <nd ref="108"/>
    <nd ref="109"/>
    <nd ref="110"/>
    <nd ref="111"/>
    <nd ref="112"/>
    <nd ref="114"/>
    <tag k="type" v="line_thin"/>
    <tag k="subtype" v="solid"/>
  </way>
  <way id="875">
    <nd ref="874"/>
    <nd ref="253"/>
    <nd ref="254"/>
    <nd ref="594"/>
    <tag k="type" v="line_thin"/>
    <tag k="subtype" v="solid"/>
  </way>
  <way id="1022">
    <nd ref="1021"/>
    <nd ref="948"/>
    <tag k="type" v="line_thin"/>
    <tag k="subtype" v="solid"/>
  </way>
  <way id="1161">
    <nd ref="1159"/>
    <nd ref="1160"/>
    <tag k="type" v="light_bulbs"/>
    <tag k="subtype" v="solid"/>
    <tag k="color" v="red"/>
  </way>
  <way id="1164">
    <nd ref="1162"/>
    <nd ref="1163"/>
    <tag k="type" v="line_thin"/>
    <tag k="subtype" v="solid"/>
  </way>
  <way id="1179">
    <nd ref="1177"/>
    <nd ref="1178"/>
    <tag k="type" v="light_bulbs"/>
    <tag k="subtype" v="solid"/>
    <tag k="color" v="red"/>
  </way>
  <way id="1185">
    <nd ref="1183"/>
    <nd ref="1184"/>
    <tag k="type" v="line_thin"/>
    <tag k="subtype" v="solid"/>
  </way>
  <way id="1188">
    <nd ref="1186"/>
    <nd ref="1187"/>
    <tag k="type" v="light_bulbs"/>
    <tag k="subtype" v="solid"/>
    <tag k="color" v="green"/>
  </way>
  <way id="1191">
    <nd ref="1189"/>
    <nd ref="1190"/>
    <tag k="type" v="light_bulbs"/>
    <tag k="subtype" v="solid"/>
    <tag k="color" v="green"/>
  </way>
  <way id="1201">
    <nd ref="1199"/>
    <nd ref="1200"/>
    <tag k="type" v="line_thin"/>
    <tag k="subtype" v="solid"/>
  </way>
  <way id="1210">
    <nd ref="1209"/>
    <nd ref="22"/>
    <nd ref="21"/>
    <nd ref="20"/>
    <nd ref="19"/>
    <nd ref="18"/>
    <nd ref="17"/>
    <nd ref="16"/>
    <nd ref="15"/>
    <nd ref="14"/>
    <nd ref="13"/>
    <nd ref="12"/>
    <nd ref="11"/>
    <nd ref="10"/>
    <nd ref="1172"/>
    <tag k="type" v="line_thin"/>
    <tag k="subtype" v="solid"/>
  </way>
  <way id="1214">
    <nd ref="1213"/>
    <nd ref="59"/>
    <nd ref="58"/>
    <nd ref="57"/>
    <nd ref="56"/>
    <nd ref="55"/>
    <nd ref="54"/>
    <nd ref="53"/>
    <nd ref="52"/>
    <nd ref="51"/>
    <nd ref="50"/>
    <nd ref="49"/>
    <nd ref="48"/>
    <nd ref="1174"/>
    <tag k="type" v="line_thin"/>
    <tag k="subtype" v="solid"/>
  </way>
  <way id="1228">
    <nd ref="1226"/>
    <nd ref="1227"/>
    <tag k="type" v="line_thin"/>
    <tag k="subtype" v="solid"/>
  </way>
  <way id="1245">
    <nd ref="1243"/>
    <nd ref="1244"/>
    <tag k="type" v="line_thin"/>
    <tag k="subtype" v="solid"/>
  </way>
  <way id="1247">
    <nd ref="1246"/>
    <nd ref="383"/>
    <nd ref="287"/>
    <tag k="type" v="line_thin"/>
    <tag k="subtype" v="solid"/>
  </way>
  <way id="1249">
    <nd ref="1248"/>
    <nd ref="360"/>
    <nd ref="389"/>
    <tag k="type" v="line_thin"/>
    <tag k="subtype" v="solid"/>
  </way>
  <way id="1254">
    <nd ref="1252"/>
    <nd ref="1253"/>
    <nd ref="287"/>
    <tag k="type" v="line_thin"/>
    <tag k="subtype" v="solid"/>
  </way>
  <way id="1256">
    <nd ref="1021"/>
    <nd ref="1255"/>
    <nd ref="389"/>
    <tag k="type" v="line_thin"/>
    <tag k="subtype" v="solid"/>
  </way>
  <way id="1268">
    <nd ref="289"/>
    <nd ref="1267"/>
    <nd ref="1269"/>
    <nd ref="1270"/>
    <nd ref="1271"/>
    <nd ref="1272"/>
    <nd ref="1273"/>
    <nd ref="1274"/>
    <nd ref="1275"/>
    <nd ref="1276"/>
    <nd ref="1277"/>
    <nd ref="1278"/>
    <nd ref="1279"/>
    <nd ref="1280"/>
    <nd ref="1281"/>
    <nd ref="1282"/>
    <nd ref="1283"/>
    <nd ref="1284"/>
    <nd ref="1285"/>
    <nd ref="1305"/>
    <nd ref="1258"/>
    <tag k="type" v="line_thin"/>
    <tag k="subtype" v="solid"/>
  </way>
  <way id="1341">
    <nd ref="1340"/>
    <nd ref="1306"/>
    <nd ref="1315"/>
    <nd ref="1316"/>
    <nd ref="1317"/>
    <nd ref="1318"/>
    <nd ref="1319"/>
    <nd ref="1320"/>
    <nd ref="1321"/>
    <nd ref="1322"/>
    <nd ref="1323"/>
    <nd ref="1324"/>
    <nd ref="1325"/>
    <nd ref="1326"/>
    <nd ref="1327"/>
    <nd ref="1328"/>
    <nd ref="1329"/>
    <nd ref="1330"/>
    <nd ref="1331"/>
    <nd ref="1339"/>
    <nd ref="1257"/>
    <tag k="type" v="line_thin"/>
    <tag k="subtype" v="solid"/>
  </way>
  <way id="1345">
    <nd ref="1343"/>
    <nd ref="1344"/>
    <nd ref="1346"/>
    <nd ref="1347"/>
    <nd ref="1429"/>
    <nd ref="1442"/>
    <tag k="type" v="line_thin"/>
    <tag k="subtype" v="solid"/>
  </way>
  <way id="1428">
    <nd ref="1252"/>
    <nd ref="314"/>
    <nd ref="1388"/>
    <nd ref="1390"/>
    <nd ref="1391"/>
    <nd ref="1392"/>
    <nd ref="1393"/>
    <nd ref="1394"/>
    <nd ref="1395"/>
    <nd ref="1396"/>
    <nd ref="1397"/>
    <nd ref="1398"/>
    <nd ref="1399"/>
    <nd ref="1400"/>
    <nd ref="1401"/>
    <nd ref="1402"/>
    <nd ref="1403"/>
    <nd ref="1404"/>
    <nd ref="1405"/>
    <nd ref="1406"/>
    <nd ref="1433"/>
    <tag k="type" v="line_thin"/>
    <tag k="subtype" v="solid"/>
  </way>
  <way id="1437">
    <nd ref="1441"/>
    <nd ref="1435"/>
    <nd ref="1436"/>
    <tag k="type" v="line_thin"/>
    <tag k="subtype" v="solid"/>
  </way>
  <way id="1440">
    <nd ref="1433"/>
    <nd ref="1438"/>
    <nd ref="1439"/>
    <nd ref="1441"/>
    <tag k="type" v="line_thin"/>
    <tag k="subtype" v="solid"/>
  </way>
  <way id="1443">
    <nd ref="1442"/>
    <nd ref="1348"/>
    <nd ref="1349"/>
    <nd ref="1445"/>
    <tag k="type" v="line_thin"/>
    <tag k="subtype" v="solid"/>
  </way>
  <way id="1446">
    <nd ref="1445"/>
    <nd ref="1354"/>
    <nd ref="1355"/>
    <nd ref="1356"/>
    <nd ref="1357"/>
    <nd ref="1358"/>
    <nd ref="1359"/>
    <nd ref="1360"/>
    <nd ref="1361"/>
    <nd ref="1362"/>
    <nd ref="1363"/>
    <nd ref="1364"/>
    <nd ref="1365"/>
    <nd ref="1366"/>
    <nd ref="1367"/>
    <nd ref="1368"/>
    <nd ref="1369"/>
    <nd ref="1370"/>
    <nd ref="1371"/>
    <nd ref="1387"/>
    <nd ref="1021"/>
    <tag k="type" v="line_thin"/>
    <tag k="subtype" v="solid"/>
  </way>
  <way id="1450">
    <nd ref="1174"/>
    <nd ref="6"/>
    <nd ref="342"/>
    <nd ref="334"/>
    <nd ref="333"/>
    <nd ref="332"/>
    <nd ref="331"/>
    <nd ref="330"/>
    <nd ref="329"/>
    <nd ref="328"/>
    <nd ref="327"/>
    <nd ref="326"/>
    <nd ref="391"/>
    <nd ref="396"/>
    <nd ref="467"/>
    <nd ref="468"/>
    <nd ref="469"/>
    <nd ref="470"/>
    <nd ref="471"/>
    <nd ref="472"/>
    <nd ref="473"/>
    <nd ref="427"/>
    <nd ref="324"/>
    <nd ref="323"/>
    <nd ref="322"/>
    <nd ref="321"/>
    <nd ref="319"/>
    <nd ref="448"/>
    <nd ref="1343"/>
    <tag k="type" v="line_thin"/>
    <tag k="subtype" v="solid"/>
  </way>
  <way id="1451">
    <nd ref="1172"/>
    <nd ref="8"/>
    <nd ref="72"/>
    <nd ref="73"/>
    <nd ref="75"/>
    <nd ref="76"/>
    <nd ref="77"/>
    <nd ref="78"/>
    <nd ref="79"/>
    <nd ref="393"/>
    <nd ref="80"/>
    <nd ref="81"/>
    <nd ref="398"/>
    <nd ref="474"/>
    <nd ref="475"/>
    <nd ref="476"/>
    <nd ref="477"/>
    <nd ref="478"/>
    <nd ref="479"/>
    <nd ref="480"/>
    <nd ref="430"/>
    <nd ref="308"/>
    <nd ref="309"/>
    <nd ref="310"/>
    <nd ref="311"/>
    <nd ref="446"/>
    <nd ref="1436"/>
    <tag k="type" v="line_thin"/>
    <tag k="subtype" v="solid"/>
  </way>
  <way id="1462">
    <nd ref="1257"/>
    <nd ref="1121"/>
    <nd ref="1122"/>
    <nd ref="948"/>
    <nd ref="1460"/>
    <tag k="type" v="line_thin"/>
    <tag k="subtype" v="solid"/>
  </way>
  <way id="1463">
    <nd ref="1460"/>
    <nd ref="355"/>
    <nd ref="594"/>
    <nd ref="592"/>
    <nd ref="255"/>
    <tag k="type" v="line_thin"/>
    <tag k="subtype" v="solid"/>
  </way>
  <way id="1464">
    <nd ref="1258"/>
    <nd ref="1124"/>
    <nd ref="1125"/>
    <nd ref="1002"/>
    <nd ref="1461"/>
    <tag k="type" v="line_thin"/>
    <tag k="subtype" v="solid"/>
  </way>
  <way id="1465">
    <nd ref="1461"/>
    <nd ref="718"/>
    <nd ref="350"/>
    <nd ref="352"/>
    <tag k="type" v="line_thin"/>
    <tag k="subtype" v="solid"/>
  </way>
  <way id="1197">
    <nd ref="1194"/>
    <nd ref="1195"/>
    <nd ref="1196"/>
    <nd ref="1198"/>
    <tag k="area" v="yes"/>
  </way>
  <way id="1223">
    <nd ref="1220"/>
    <nd ref="1221"/>
    <nd ref="1222"/>
    <nd ref="1224"/>
    <tag k="area" v="yes"/>
  </way>
  <way id="1241">
    <nd ref="1238"/>
    <nd ref="1239"/>
    <nd ref="1240"/>
    <nd ref="1242"/>
    <tag k="area" v="yes"/>
  </way>
  <relation id="71">
    <member type="way" role="left" ref="440"/>
    <member type="way" role="right" ref="441"/>
    <member type="relation" role="regulatory_element" ref="1157"/>
    <tag k="type" v="lanelet"/>
    <tag k="subtype" v="road"/>
    <tag k="speed_limit" v="15"/>
    <tag k="location" v="urban"/>
    <tag k="one_way" v="yes"/>
  </relation>
  <relation id="522">
    <member type="way" role="left" ref="526"/>
    <member type="way" role="right" ref="525"/>
    <tag k="type" v="lanelet"/>
    <tag k="subtype" v="road"/>
    <tag k="speed_limit" v="10"/>
    <tag k="location" v="urban"/>
    <tag k="one_way" v="yes"/>
  </relation>
  <relation id="1176">
    <member type="way" role="left" ref="1450"/>
    <member type="way" role="right" ref="1451"/>
    <tag k="type" v="lanelet"/>
    <tag k="subtype" v="road"/>
    <tag k="speed_limit" v="10"/>
    <tag k="location" v="urban"/>
    <tag k="one_way" v="yes"/>
  </relation>
  <relation id="1215">
    <member type="way" role="left" ref="1214"/>
    <member type="way" role="right" ref="1210"/>
    <member type="relation" role="regulatory_element" ref="1218"/>
    <member type="relation" role="regulatory_element" ref="1219"/>
    <tag k="type" v="lanelet"/>
    <tag k="subtype" v="road"/>
    <tag k="speed_limit" v="15"/>
    <tag k="location" v="urban"/>
    <tag k="one_way" v="yes"/>
  </relation>
  <relation id="1250">
    <member type="way" role="left" ref="1249"/>
    <member type="way" role="right" ref="1247"/>
    <member type="relation" role="regulatory_element" ref="1251"/>
    <tag k="type" v="lanelet"/>
    <tag k="subtype" v="road"/>
    <tag k="speed_limit" v="10"/>
    <tag k="location" v="urban"/>
    <tag k="one_way" v="yes"/>
  </relation>
  <relation id="1263">
    <member type="way" role="left" ref="1462"/>
    <member type="way" role="right" ref="1464"/>
    <tag k="type" v="lanelet"/>
    <tag k="subtype" v="road"/>
    <tag k="speed_limit" v="15"/>
    <tag k="location" v="urban"/>
    <tag k="one_way" v="yes"/>
    <tag k="dead_end" v="yes"/>
  </relation>
  <relation id="1264">
    <member type="way" role="left" ref="1256"/>
    <member type="way" role="right" ref="1254"/>
    <tag k="type" v="lanelet"/>
    <tag k="subtype" v="road"/>
    <tag k="speed_limit" v="10"/>
    <tag k="location" v="urban"/>
    <tag k="one_way" v="yes"/>
  </relation>
  <relation id="1342">
    <member type="way" role="left" ref="1341"/>
    <member type="way" role="right" ref="1268"/>
    <tag k="type" v="lanelet"/>
    <tag k="subtype" v="road"/>
    <tag k="speed_limit" v="10"/>
    <tag k="location" v="urban"/>
    <tag k="one_way" v="yes"/>
  </relation>
  <relation id="1444">
    <member type="way" role="left" ref="1345"/>
    <member type="way" role="right" ref="1437"/>
    <tag k="type" v="lanelet"/>
    <tag k="subtype" v="road"/>
    <tag k="speed_limit" v="10"/>
    <tag k="location" v="urban"/>
    <tag k="one_way" v="yes"/>
  </relation>
  <relation id="1447">
    <member type="way" role="left" ref="1443"/>
    <member type="way" role="right" ref="1440"/>
    <tag k="type" v="lanelet"/>
    <tag k="subtype" v="road"/>
    <tag k="speed_limit" v="10"/>
    <tag k="location" v="urban"/>
    <tag k="one_way" v="yes"/>
  </relation>
  <relation id="1452">
    <member type="way" role="left" ref="1446"/>
    <member type="way" role="right" ref="1428"/>
    <tag k="type" v="lanelet"/>
    <tag k="subtype" v="road"/>
    <tag k="speed_limit" v="10"/>
    <tag k="location" v="urban"/>
    <tag k="one_way" v="yes"/>
  </relation>
  <relation id="1466">
    <member type="way" role="left" ref="1463"/>
    <member type="way" role="right" ref="1465"/>
    <member type="relation" role="regulatory_element" ref="1225"/>
    <tag k="type" v="lanelet"/>
    <tag k="subtype" v="road"/>
    <tag k="speed_limit" v="15"/>
    <tag k="location" v="urban"/>
    <tag k="one_way" v="yes"/>
    <tag k="dead_end" v="yes"/>
  </relation>
  <relation id="1157">
    <member type="way" role="light_bulbs" ref="1161"/>
    <member type="way" role="light_bulbs" ref="1188"/>
    <member type="way" role="ref_line" ref="1164"/>
    <tag k="type" v="regulatory_element"/>
    <tag k="subtype" v="traffic_light"/>
  </relation>
  <relation id="1218">
    <member type="way" role="light_bulbs" ref="1179"/>
    <member type="way" role="light_bulbs" ref="1191"/>
    <member type="way" role="ref_line" ref="1185"/>
    <tag k="type" v="regulatory_element"/>
    <tag k="subtype" v="traffic_light"/>
  </relation>
  <relation id="1219">
    <member type="way" role="crosswalk_polygon" ref="1197"/>
    <member type="way" role="ref_line" ref="1201"/>
    <tag k="type" v="regulatory_element"/>
    <tag k="subtype" v="crosswalk"/>
  </relation>
  <relation id="1225">
    <member type="way" role="crosswalk_polygon" ref="1223"/>
    <member type="way" role="ref_line" ref="1228"/>
    <tag k="type" v="regulatory_element"/>
    <tag k="subtype" v="crosswalk"/>
  </relation>
  <relation id="1251">
    <member type="way" role="crosswalk_polygon" ref="1241"/>
    <member type="way" role="ref_line" ref="1245"/>
    <tag k="type" v="regulatory_element"/>
    <tag k="subtype" v="crosswalk"/>
  </relation>
</osm>
